{
    "links": {
        "self": "http://www.neowsapp.com/rest/v1/neo/3359277?api_key=iIulBulltgU6a56xZRHN4H3l9WmuAYTsLGpBGhQ2"
    },
    "id": "3359277",
    "neo_reference_id": "3359277",
    "name": "(2006 WB3)",
    "designation": "2006 WB3",
    "nasa_jpl_url": "http://ssd.jpl.nasa.gov/sbdb.cgi?sstr=3359277",
    "absolute_magnitude_h": 24.4,
    "estimated_diameter": {
        "kilometers": {
            "estimated_diameter_min": 0.0350392641,
            "estimated_diameter_max": 0.0783501764
        },
        "meters": {
            "estimated_diameter_min": 35.0392641108,
            "estimated_diameter_max": 78.3501764334
        },
        "miles": {
            "estimated_diameter_min": 0.0217723826,
            "estimated_diameter_max": 0.0486845275
        },
        "feet": {
            "estimated_diameter_min": 114.9582192654,
            "estimated_diameter_max": 257.0543928497
        }
    },
    "is_potentially_hazardous_asteroid": false,
    "close_approach_data": [
        {
            "close_approach_date": "2006-11-16",
            "close_approach_date_full": "2006-Nov-16 19:05",
            "epoch_date_close_approach": 1163703900000,
            "relative_velocity": {
                "kilometers_per_second": "11.0790006417",
                "kilometers_per_hour": "39884.4023099497",
                "miles_per_hour": "24782.6165353129"
            },
            "miss_distance": {
                "astronomical": "0.0478286413",
                "lunar": "18.6053414657",
                "kilometers": "7155062.863474031",
                "miles": "4445949.9019263878"
            },
            "orbiting_body": "Earth"
        }
    ],
    "orbital_data": {
        "orbit_id": "6",
        "orbit_determination_date": "2017-04-06 09:07:35",
        "first_observation_date": "2006-11-19",
        "last_observation_date": "2006-11-21",
        "data_arc_in_days": 2,
        "observations_used": 24,
        "orbit_uncertainty": "9",
        "minimum_orbit_intersection": ".0478159",
        "jupiter_tisserand_invariant": "4.731",
        "epoch_osculation": "2454060.5",
        "eccentricity": ".2452835532072246",
        "semi_major_axis": "1.371646280200941",
        "inclination": "19.72460998489224",
        "ascending_node_longitude": "234.9892490593669",
        "orbital_period": "586.7615159670324",
        "perihelion_distance": "1.035204006849782",
        "perihelion_argument": "172.897586517692",
        "aphelion_distance": "1.708088553552101",
        "perihelion_time": "2454050.238956321549",
        "mean_anomaly": "6.29553170022471",
        "mean_motion": ".6135371700488735",
        "equinox": "J2000",
        "orbit_class": {
            "orbit_class_type": "AMO",
            "orbit_class_description": "Near-Earth asteroid orbits similar to that of 1221 Amor",
            "orbit_class_range": "1.017 AU < q (perihelion) < 1.3 AU"
        }
    },
    "is_sentry_object": false
}